NORAD_CAT_ID,OBJECT_NAME,OBJECT_TYPE,EPOCH,MEAN_MOTION,ECCENTRICITY,INCLINATION,RA_OF_ASC_NODE,ARG_OF_PERICENTER,MEAN_ANOMALY,BSTAR,MEAN_MOTION_DOT,MEAN_MOTION_DDOT,TLE_LINE0,TLE_LINE1,TLE_LINE2,SEMIMAJOR_AXIS,PERIOD,APOGEE,PERIGEE,DECAYED
49151.0,STARLINK-3102,PAYLOAD,2023-01-13 16:50:01,14.98322616,0.0002928999999999,70.0005,276.5001,266.0727,94.0097,0.0015641,0.00018616,0.0,0 STARLINK-3102,1 49151U 21082X   23013.70140530  .00018616  00000-0  15641-2 0  9993,2 49151  70.0005 276.5001 0002929 266.0727  94.0097 14.98322616 75752,6950.215999999999,96.107,574.116,570.045,0.0
49151.0,STARLINK-3102,PAYLOAD,2023-01-14 02:26:49,14.98344903,0.0002853,70.0004,275.4891,269.8034,90.2799,0.0020554,0.00024527,0.0,0 STARLINK-3102,1 49151U 21082X   23014.10196396  .00024527  00000-0  20554-2 0  9996,2 49151  70.0004 275.4891 0002853 269.8034  90.2799 14.98344903 75822,6950.147,96.106,573.995,570.029,0.0
49151.0,STARLINK-3102,PAYLOAD,2023-01-14 10:27:30,14.98339147,0.0002194,70.0006,274.6452,277.05400000000003,83.0369,0.0015063,0.0001793,0.0,0 STARLINK-3102,1 49151U 21082X   23014.43576808  .00017930  00000-0  15063-2 0  9991,2 49151  70.0006 274.6452 0002194 277.0540  83.0369 14.98339147 75871,6950.165,96.106,573.554,570.505,0.0
49151.0,STARLINK-3102,PAYLOAD,2023-01-15 02:28:50,14.98347535,0.0002972,70.0007,272.9642,269.4805,90.6013,0.0013542,0.0001610999999999,0.0,0 STARLINK-3102,1 49151U 21082X   23015.10336448  .00016110  00000-0  13542-2 0  9999,2 49151  70.0007 272.9642 0002972 269.4805  90.6013 14.98347535 75978,6950.139,96.106,574.069,569.938,0.0
49151.0,STARLINK-3102,PAYLOAD,2023-01-15 10:29:31,14.98341256,0.0003063,70.0005,272.122,273.753,86.3279,0.0012594,0.00014971,0.0,0 STARLINK-3102,1 49151U 21082X   23015.43716473  .00014971  00000-0  12594-2 0  9994,2 49151  70.0005 272.1220 0003063 273.7530  86.3279 14.98341256 76022,6950.158,96.106,574.1519999999999,569.894,0.0
49151.0,STARLINK-3102,PAYLOAD,2023-01-15 21:42:27,14.98343189,0.0003007,70.0006,270.9431,272.2255,87.8559,0.00061331,7.235e-05,0.0,0 STARLINK-3102,1 49151U 21082X   23015.90448177  .00007235  00000-0  61331-3 0  9998,2 49151  70.0006 270.9431 0003007 272.2255  87.8559 14.98343189 76089,6950.151999999999,96.106,574.107,569.927,0.0
49151.0,STARLINK-3102,PAYLOAD,2023-01-16 10:31:31,14.98341102,0.0003051,70.0031,269.5955,266.7198,93.3612,0.0002701,3.132e-05,0.0,0 STARLINK-3102,1 49151U 21082X   23016.43855785  .00003132  00000-0  27010-3 0  9992,2 49151  70.0031 269.5955 0003051 266.7198  93.3612 14.98341102 76170,6950.159000000001,96.106,574.144,569.903,0.0
49151.0,STARLINK-3102,PAYLOAD,2023-01-16 16:56:03,14.983346300000004,0.0002669,70.0012,268.9229,265.8836,94.2018,2.1589e-05,1.65e-06,0.0,0 STARLINK-3102,1 49151U 21082X   23016.70560081  .00000165  00000-0  21589-4 0  9993,2 49151  70.0012 268.9229 0002669 265.8836  94.2018 14.98334630 76212,6950.179,96.107,573.899,570.189,0.0
49151.0,STARLINK-3102,PAYLOAD,2023-01-16 18:32:11,14.98333618,0.000272,70.0012,268.7547,265.9382,94.1466,-4.8216000000000006e-06,-1.5e-06,0.0,0 STARLINK-3102,1 49151U 21082X   23016.77236075 -.00000150  00000-0 -48216-5 0  9996,2 49151  70.0012 268.7547 0002720 265.9382  94.1466 14.98333618 76219,6950.182,96.107,573.937,570.156,0.0
49151.0,STARLINK-3102,PAYLOAD,2023-01-17 02:32:52,14.98333363,0.0002933,70.0015,267.9141,268.1188,91.9635,8.55e-05,9.27e-06,0.0,0 STARLINK-3102,1 49151U 21082X   23017.10616136  .00000927  00000-0  85500-4 0  9990,2 49151  70.0015 267.9141 0002933 268.1188  91.9635 14.98333363 76263,6950.182,96.107,574.086,570.009,0.0
49151.0,STARLINK-3102,PAYLOAD,2023-01-18 02:34:53,14.98329113,0.0002836999999999,70.0017,265.3893,266.764,93.3194,0.00019459,2.23e-05,0.0,0 STARLINK-3102,1 49151U 21082X   23018.10756619  .00002230  00000-0  19459-3 0  9990,2 49151  70.0017 265.3893 0002837 266.7640  93.3194 14.98329113 76423,6950.196,96.107,574.0319999999999,570.089,0.0
49151.0,STARLINK-3102,PAYLOAD,2023-01-18 10:35:33,14.98334955,0.0002928999999999,70.0012,264.5479,266.4148,93.6676,0.00045964,5.396e-05,0.0,0 STARLINK-3102,1 49151U 21082X   23018.44136566  .00005396  00000-0  45964-3 0  9996,2 49151  70.0012 264.5479 0002929 266.4148  93.6676 14.98334955 76463,6950.178000000001,96.107,574.078,570.007,0.0
49151.0,STARLINK-3102,PAYLOAD,2023-01-18 21:48:30,14.98344268,0.000294,70.0012,263.3697,265.9453,94.137,0.00065125,7.689e-05,0.0,0 STARLINK-3102,1 49151U 21082X   23018.90868243  .00007689  00000-0  65125-3 0  9999,2 49151  70.0012 263.3697 0002940 265.9453  94.1370 14.98344268 76531,6950.149,96.106,574.057,569.97,0.0
49151.0,STARLINK-3102,PAYLOAD,2023-01-19 02:36:54,14.98354034,0.0002992,70.0011,262.8643,266.9346,93.1471,0.00096935,0.00011499,0.0,0 STARLINK-3102,1 49151U 21082X   23019.10895842  .00011499  00000-0  96935-3 0  9994,2 49151  70.0011 262.8643 0002992 266.9346  93.1471 14.98354034 76571,6950.119000000001,96.105,574.063,569.904,0.0
49151.0,STARLINK-3102,PAYLOAD,2023-01-19 09:01:26,14.98332739,0.0002206,70.0021,262.1906,275.158,84.9327,0.00011594,1.291e-05,0.0,0 STARLINK-3102,1 49151U 21082X   23019.37600531  .00001291  00000-0  11594-3 0  9999,2 49151  70.0021 262.1906 0002206 275.1580  84.9327 14.98332739 76618,6950.184,96.107,573.5830000000001,570.516,0.0
49151.0,STARLINK-3102,PAYLOAD,2023-01-20 09:03:28,14.98326786,0.0002944,70.001,259.6664,274.1317,85.9506,0.00077165,9.125e-05,0.0,0 STARLINK-3102,1 49151U 21082X   23020.37740983  .00009125  00000-0  77165-3 0  9997,2 49151  70.0010 259.6664 0002944 274.1317  85.9506 14.98326786 76765,6950.203,96.107,574.114,570.0219999999999,0.0
49151.0,STARLINK-3102,PAYLOAD,2023-01-21 09:05:28,14.98337982,0.0002702,70.0012,257.1414,274.5497,85.5353,0.00047686,5.602e-05,0.0,0 STARLINK-3102,1 49151U 21082X   23021.37880778  .00005602  00000-0  47686-3 0  9996,2 49151  70.0012 257.1414 0002702 274.5497  85.5353 14.98337982 76911,6950.168000000001,96.106,573.911,570.155,0.0
49151.0,STARLINK-3102,PAYLOAD,2023-01-22 09:07:29,14.98341254,0.0003016,70.0004,254.6169,273.7319,86.3495,0.00031088,3.619e-05,0.0,0 STARLINK-3102,1 49151U 21082X   23022.38020217  .00003619  00000-0  31088-3 0  9997,2 49151  70.0004 254.6169 0003016 273.7319  86.3495 14.98341254 77064,6950.158,96.106,574.119,569.927,0.0
49151.0,STARLINK-3102,PAYLOAD,2023-01-22 15:32:01,14.98330484,0.0002806,70.0009,253.9441,272.6894,87.3944,-3.6602e-05,-5.3e-06,0.0,0 STARLINK-3102,1 49151U 21082X   23022.64724500 -.00000530  00000-0 -36602-4 0  9991,2 49151  70.0009 253.9441 0002806 272.6894  87.3944 14.98330484 77104,6950.191,96.107,574.007,570.106,0.0
49151.0,STARLINK-3102,PAYLOAD,2023-01-24 01:10:50,14.98341235,0.0002804,70.0004,250.4083,270.2332,89.8506,0.0003443,4.019e-05,0.0,0 STARLINK-3102,1 49151U 21082X   23024.04920136  .00004019  00000-0  34430-3 0  9990,2 49151  70.0004 250.4083 0002804 270.2332  89.8506 14.98341235 77312,6950.158,96.106,573.972,570.0740000000001,0.0
49151.0,STARLINK-3102,PAYLOAD,2023-01-24 20:24:27,14.98335408,0.0002889,70.0006,248.3884,270.4916,89.5912,0.00018943,2.168e-05,0.0,0 STARLINK-3102,1 49151U 21082X   23024.85032183  .00002168  00000-0  18943-3 0  9999,2 49151  70.0006 248.3884 0002889 270.4916  89.5912 14.98335408 77438,6950.176,96.107,574.049,570.033,0.0
49151.0,STARLINK-3102,PAYLOAD,2023-01-25 07:37:24,14.98335562,0.0002962,70.0007,247.2096,271.2041,88.8779,9.0468e-05,9.87e-06,0.0,0 STARLINK-3102,1 49151U 21082X   23025.31763935  .00000987  00000-0  90468-4 0  9997,2 49151  70.0007 247.2096 0002962 271.2041  88.8779 14.98335562 77492,6950.176,96.107,574.099,569.982,0.0
49151.0,STARLINK-3102,PAYLOAD,2023-01-25 20:26:28,14.98330665,0.0002943,70.0008,245.8635,267.2509,92.8314,7.0015e-06,-9e-08,0.0,0 STARLINK-3102,1 49151U 21082X   23025.85172150 -.00000009  00000-0  70015-5 0  9992,2 49151  70.0008 245.8635 0002943 267.2509  92.8314 14.98330665 77588,6950.191,96.107,574.101,570.01,0.0
49151.0,STARLINK-3102,PAYLOAD,2023-01-26 01:14:52,14.98336355,0.0002896,69.9998,245.3583,269.3281,90.7546,0.00010134,1.117e-05,0.0,0 STARLINK-3102,1 49151U 21082X   23026.05199920  .00001117  00000-0  10134-3 0  9993,2 49151  69.9998 245.3583 0002896 269.3281  90.7546 14.98336355 77606,6950.173000000001,96.107,574.0509999999999,570.025,0.0
49151.0,STARLINK-3102,PAYLOAD,2023-01-26 20:28:29,14.98332066,0.0002883,69.9999,243.3382,268.47,91.6129,9.789e-05,1.075e-05,0.0,0 STARLINK-3102,1 49151U 21082X   23026.85312094  .00001075  00000-0  97890-4 0  9998,2 49151  69.9999 243.3382 0002883 268.4700  91.6129 14.98332066 77730,6950.187,96.107,574.055,570.048,0.0
49151.0,STARLINK-3102,PAYLOAD,2023-01-26 23:40:45,14.98334193,0.0002867,70.0001,243.0015,268.903,91.18,8.230600000000001e-05,8.89e-06,0.0,0 STARLINK-3102,1 49151U 21082X   23026.98663933  .00000889  00000-0  82306-4 0  9991,2 49151  70.0001 243.0015 0002867 268.9030  91.1800 14.98334193 77745,6950.18,96.107,574.038,570.052,0.0
49151.0,STARLINK-3102,PAYLOAD,2023-01-27 20:30:30,14.98328316,0.0002793,70.0002,240.8132,267.3891,92.6948,5.7923e-05,5.98e-06,0.0,0 STARLINK-3102,1 49151U 21082X   23027.85452367  .00000598  00000-0  57923-4 0  9999,2 49151  70.0002 240.8132 0002793 267.3891  92.6948 14.98328316 77881,6950.198,96.107,574.004,570.122,0.0
49151.0,STARLINK-3102,PAYLOAD,2023-01-28 14:07:59,14.98333102,0.0002846,70.0,238.9616,267.9667,92.1166,8.3194e-05,9e-06,0.0,0 STARLINK-3102,1 49151U 21082X   23028.58887966  .00000900  00000-0  83194-4 0  9993,2 49151  70.0000 238.9616 0002846 267.9667  92.1166 14.98333102 77987,6950.183,96.107,574.026,570.07,0.0
49151.0,STARLINK-3102,PAYLOAD,2023-01-28 20:32:31,14.98334628,0.0002853,70.0,238.2887,268.5189,91.5643,9.3689e-05,1.025e-05,0.0,0 STARLINK-3102,1 49151U 21082X   23028.85591800  .00001025  00000-0  93689-4 0  9991,2 49151  70.0000 238.2887 0002853 268.5189  91.5643 14.98334628 78038,6950.179,96.107,574.026,570.061,0.0
